[{"OBJECT_NAME":"HAIYANG-2C","OBJECT_ID":"2020-066A","EPOCH":"2026-03-09T23:27:23.046048","MEAN_MOTION":13.83375283,"ECCENTRICITY":0.001262,"INCLINATION":65.9957,"RA_OF_ASC_NODE":102.2961,"ARG_OF_PERICENTER":249.7305,"MEAN_ANOMALY":110.2407,"EPHEMERIS_TYPE":0,"CLASSIFICATION_TYPE":"U","NORAD_CAT_ID":46469,"ELEMENT_SET_NO":999,"REV_AT_EPOCH":27577,"BSTAR":0.00017439062,"MEAN_MOTION_DOT":1.11e-6,"MEAN_MOTION_DDOT":0},{"OBJECT_NAME":"METEOR 2-18","OBJECT_ID":"1989-018A","EPOCH":"2026-03-09T23:13:07.887360","MEAN_MOTION":13.86020415,"ECCENTRICITY":0.0013241,"INCLINATION":82.517,"RA_OF_ASC_NODE":248.2098,"ARG_OF_PERICENTER":53.5334,"MEAN_ANOMALY":104.267,"EPHEMERIS_TYPE":0,"CLASSIFICATION_TYPE":"U","NORAD_CAT_ID":19851,"ELEMENT_SET_NO":999,"REV_AT_EPOCH":87207,"BSTAR":7.1632914e-5,"MEAN_MOTION_DOT":9.7e-7,"MEAN_MOTION_DDOT":0}]
